{"type": "FeatureCollection", "features": [ {"type": "Feature", "properties": {"norad_id": 54031, "name": "COSMOS 2559 (707K)", "group": "gnss", "lat": -10.67671599801599, "lon": -44.43883965310712, "alt_km": 19158.78142397281, "timestamp": "2025-12-23T09:49:07.326588+00:00", "meta": {"OBJECT_NAME": "COSMOS 2559 (707K)", "OBJECT_ID": "2022-130A", "EPOCH": "2025-12-22T11:39:56.948256", "MEAN_MOTION": 2.13101308, "ECCENTRICITY": 0.0011535, "INCLINATION": 64.3767, "RA_OF_ASC_NODE": 320.7983, "ARG_OF_PERICENTER": 191.7961, "MEAN_ANOMALY": 168.1737, "EPHEMERIS_TYPE": 0, "CLASSIFICATION_TYPE": "U", "NORAD_CAT_ID": 54031, "ELEMENT_SET_NO": 999, "REV_AT_EPOCH": 2492, "BSTAR": 0, "MEAN_MOTION_DOT": -4.2e-07, "MEAN_MOTION_DDOT": 0}, "tle": {"line1": "1 54031U 22130A   25356.48607579 -.00000042  00000+0  00000+0 0  9993", "line2": "2 54031  64.3767 320.7983 0011535 191.7961 168.1737  2.13101308 24928"}}, "geometry": {"type": "Point", "coordinates": [-44.43883965310712, -10.67671599801599]}}, {"type": "Feature", "properties": {"norad_id": 54377, "name": "COSMOS 2564 (761)", "group": "gnss", "lat": 59.5289221151485, "lon": -34.86571814623229, "alt_km": 19125.67992680501, "timestamp": "2025-12-23T09:49:07.326606+00:00", "meta": {"OBJECT_NAME": "COSMOS 2564 (761)", "OBJECT_ID": "2022-161A", "EPOCH": "2025-12-22T07:55:31.540224", "MEAN_MOTION": 2.13102045, "ECCENTRICITY": 0.00085467, "INCLINATION": 64.7388, "RA_OF_ASC_NODE": 198.5803, "ARG_OF_PERICENTER": 203.7218, "MEAN_ANOMALY": 156.3061, "EPHEMERIS_TYPE": 0, "CLASSIFICATION_TYPE": "U", "NORAD_CAT_ID": 54377, "ELEMENT_SET_NO": 999, "REV_AT_EPOCH": 2386, "BSTAR": 0, "MEAN_MOTION_DOT": 9.5e-07, "MEAN_MOTION_DDOT": 0}, "tle": {"line1": "1 54377U 22161A   25356.33022616  .00000095  00000+0  00000+0 0  9994", "line2": "2 54377  64.7388 198.5803 0008546 203.7218 156.3061  2.13102045 23863"}}, "geometry": {"type": "Point", "coordinates": [-34.86571814623229, 59.5289221151485]}}, {"type": "Feature", "properties": {"norad_id": 55268, "name": "GPS BIII-6  (PRN 28)", "group": "gnss", "lat": -26.743951164841004, "lon": 134.82506749378456, "alt_km": 20177.861859366174, "timestamp": "2025-12-23T09:49:07.326624+00:00", "meta": {"OBJECT_NAME": "GPS BIII-6  (PRN 28)", "OBJECT_ID": "2023-009A", "EPOCH": "2025-12-22T10:59:58.065216", "MEAN_MOTION": 2.00554901, "ECCENTRICITY": 0.00037047, "INCLINATION": 55.1065, "RA_OF_ASC_NODE": 155.4638, "ARG_OF_PERICENTER": 355.7912, "MEAN_ANOMALY": 4.4255, "EPHEMERIS_TYPE": 0, "CLASSIFICATION_TYPE": "U", "NORAD_CAT_ID": 55268, "ELEMENT_SET_NO": 999, "REV_AT_EPOCH": 2170, "BSTAR": 0, "MEAN_MOTION_DOT": 7.4e-07, "MEAN_MOTION_DDOT": 0}, "tle": {"line1": "1 55268U 23009A   25356.45831094  .00000074  00000+0  00000+0 0  9994", "line2": "2 55268  55.1065 155.4638 0003704 355.7912   4.4255  2.00554901 21704"}}, "geometry": {"type": "Point", "coordinates": [134.82506749378456, -26.743951164841004]}}, {"type": "Feature", "properties": {"norad_id": 56564, "name": "BEIDOU-3 G4 (C62)", "group": "gnss", "lat": 0.7999562830521914, "lon": 39.50683583839635, "alt_km": 35793.36052422844, "timestamp": "2025-12-23T09:49:07.326642+00:00", "meta": {"OBJECT_NAME": "BEIDOU-3 G4 (C62)", "OBJECT_ID": "2023-066A", "EPOCH": "2025-12-22T22:29:08.375136", "MEAN_MOTION": 1.00271206, "ECCENTRICITY": 0.00026513, "INCLINATION": 0.7938, "RA_OF_ASC_NODE": 302.8252, "ARG_OF_PERICENTER": 227.2007, "MEAN_ANOMALY": 59.0519, "EPHEMERIS_TYPE": 0, "CLASSIFICATION_TYPE": "U", "NORAD_CAT_ID": 56564, "ELEMENT_SET_NO": 999, "REV_AT_EPOCH": 962, "BSTAR": 0, "MEAN_MOTION_DOT": -8.9e-07, "MEAN_MOTION_DDOT": 0}, "tle": {"line1": "1 56564U 23066A   25356.93690249 -.00000089  00000+0  00000+0 0  9992", "line2": "2 56564   0.7938 302.8252 0002651 227.2007  59.0519  1.00271206  9626"}}, "geometry": {"type": "Point", "coordinates": [39.50683583839635, 0.7999562830521914]}}, {"type": "Feature", "properties": {"norad_id": 56759, "name": "NVS-01 (IRNSS-1J)", "group": "gnss", "lat": 2.294453397015404, "lon": 9.15990797558201, "alt_km": 35792.85259638431, "timestamp": "2025-12-23T09:49:07.326660+00:00", "meta": {"OBJECT_NAME": "NVS-01 (IRNSS-1J)", "OBJECT_ID": "2023-076A", "EPOCH": "2025-12-22T18:54:58.881600", "MEAN_MOTION": 1.00272437, "ECCENTRICITY": 0.00087971, "INCLINATION": 2.595, "RA_OF_ASC_NODE": 251.2426, "ARG_OF_PERICENTER": 16.6931, "MEAN_ANOMALY": 236.9605, "EPHEMERIS_TYPE": 0, "CLASSIFICATION_TYPE": "U", "NORAD_CAT_ID": 56759, "ELEMENT_SET_NO": 999, "REV_AT_EPOCH": 934, "BSTAR": 0, "MEAN_MOTION_DOT": -3.13e-06, "MEAN_MOTION_DDOT": 0}, "tle": {"line1": "1 56759U 23076A   25356.78818150 -.00000313  00000+0  00000+0 0  9995", "line2": "2 56759   2.5950 251.2426 0008797  16.6931 236.9605  1.00272437  9347"}}, "geometry": {"type": "Point", "coordinates": [9.15990797558201, 2.294453397015404]}}, {"type": "Feature", "properties": {"norad_id": 57517, "name": "COSMOS 2569 (703K)", "group": "gnss", "lat": 64.21030277842044, "lon": -174.24730440640658, "alt_km": 19150.141962827525, "timestamp": "2025-12-23T09:49:07.326681+00:00", "meta": {"OBJECT_NAME": "COSMOS 2569 (703K)", "OBJECT_ID": "2023-114A", "EPOCH": "2025-12-22T08:14:44.480832", "MEAN_MOTION": 2.13104025, "ECCENTRICITY": 0.00108594, "INCLINATION": 65.199, "RA_OF_ASC_NODE": 78.589, "ARG_OF_PERICENTER": 287.0596, "MEAN_ANOMALY": 72.8655, "EPHEMERIS_TYPE": 0, "CLASSIFICATION_TYPE": "U", "NORAD_CAT_ID": 57517, "ELEMENT_SET_NO": 999, "REV_AT_EPOCH": 1849, "BSTAR": 0, "MEAN_MOTION_DOT": -3e-08, "MEAN_MOTION_DDOT": 0}, "tle": {"line1": "1 57517U 23114A   25356.34357038 -.00000003  00000+0  00000+0 0  9992", "line2": "2 57517  65.1990  78.5890 0010859 287.0596  72.8655  2.13104025 18497"}}, "geometry": {"type": "Point", "coordinates": [-174.24730440640658, 64.21030277842044]}}, {"type": "Feature", "properties": {"norad_id": 58654, "name": "BEIDOU-3 M28 (C50)", "group": "gnss", "lat": 20.048644448625065, "lon": -126.20408722843746, "alt_km": 21529.581524454898, "timestamp": "2025-12-23T09:49:07.326701+00:00", "meta": {"OBJECT_NAME": "BEIDOU-3 M28 (C50)", "OBJECT_ID": "2023-207A", "EPOCH": "2025-12-22T15:21:59.092992", "MEAN_MOTION": 1.86229743, "ECCENTRICITY": 0.00028082, "INCLINATION": 55.5929, "RA_OF_ASC_NODE": 68.2662, "ARG_OF_PERICENTER": 274.2836, "MEAN_ANOMALY": 85.7355, "EPHEMERIS_TYPE": 0, "CLASSIFICATION_TYPE": "U", "NORAD_CAT_ID": 58654, "ELEMENT_SET_NO": 999, "REV_AT_EPOCH": 1355, "BSTAR": 0, "MEAN_MOTION_DOT": -3e-07, "MEAN_MOTION_DDOT": 0}, "tle": {"line1": "1 58654U 23207A   25356.64026728 -.00000030  00000+0  00000+0 0  9990", "line2": "2 58654  55.5929  68.2662 0002808 274.2836  85.7355  1.86229743 13554"}}, "geometry": {"type": "Point", "coordinates": [-126.20408722843746, 20.048644448625065]}}, {"type": "Feature", "properties": {"norad_id": 58655, "name": "BEIDOU-3 M26 (C48)", "group": "gnss", "lat": -50.30495733016337, "lon": 12.711929603448423, "alt_km": 21523.75204732003, "timestamp": "2025-12-23T09:49:07.326719+00:00", "meta": {"OBJECT_NAME": "BEIDOU-3 M26 (C48)", "OBJECT_ID": "2023-207B", "EPOCH": "2025-12-22T10:30:28.326240", "MEAN_MOTION": 1.86231247, "ECCENTRICITY": 0.00041599, "INCLINATION": 55.5947, "RA_OF_ASC_NODE": 68.2593, "ARG_OF_PERICENTER": 259.3765, "MEAN_ANOMALY": 100.6271, "EPHEMERIS_TYPE": 0, "CLASSIFICATION_TYPE": "U", "NORAD_CAT_ID": 58655, "ELEMENT_SET_NO": 999, "REV_AT_EPOCH": 1353, "BSTAR": 0, "MEAN_MOTION_DOT": -3e-07, "MEAN_MOTION_DDOT": 0}, "tle": {"line1": "1 58655U 23207B   25356.43782785 -.00000030  00000+0  00000+0 0  9990", "line2": "2 58655  55.5947  68.2593 0004159 259.3765 100.6271  1.86231247 13538"}}, "geometry": {"type": "Point", "coordinates": [12.711929603448423, -50.30495733016337]}}, {"type": "Feature", "properties": {"norad_id": 59598, "name": "GSAT0225 (GALILEO 29)", "group": "gnss", "lat": -11.265556112661292, "lon": 97.98797841698706, "alt_km": 23229.847234381137, "timestamp": "2025-12-23T09:49:07.326737+00:00", "meta": {"OBJECT_NAME": "GSAT0225 (GALILEO 29)", "OBJECT_ID": "2024-079A", "EPOCH": "2025-12-22T20:21:50.564160", "MEAN_MOTION": 1.70474954, "ECCENTRICITY": 0.00022188, "INCLINATION": 55.0069, "RA_OF_ASC_NODE": 106.0132, "ARG_OF_PERICENTER": 188.6953, "MEAN_ANOMALY": 173.4251, "EPHEMERIS_TYPE": 0, "CLASSIFICATION_TYPE": "U", "NORAD_CAT_ID": 59598, "ELEMENT_SET_NO": 999, "REV_AT_EPOCH": 1031, "BSTAR": 0, "MEAN_MOTION_DOT": 8e-08, "MEAN_MOTION_DDOT": 0}, "tle": {"line1": "1 59598U 24079A   25356.84850190  .00000008  00000+0  00000+0 0  9990", "line2": "2 59598  55.0069 106.0132 0002218 188.6953 173.4251  1.70474954 10318"}}, "geometry": {"type": "Point", "coordinates": [97.98797841698706, -11.265556112661292]}}, {"type": "Feature", "properties": {"norad_id": 59600, "name": "GSAT0227 (GALILEO 30)", "group": "gnss", "lat": -41.341753641996924, "lon": -36.01897268978149, "alt_km": 23230.672739283986, "timestamp": "2025-12-23T09:49:07.326754+00:00", "meta": {"OBJECT_NAME": "GSAT0227 (GALILEO 30)", "OBJECT_ID": "2024-079C", "EPOCH": "2025-12-21T20:31:35.455872", "MEAN_MOTION": 1.70474868, "ECCENTRICITY": 0.00028355, "INCLINATION": 55.0019, "RA_OF_ASC_NODE": 106.0394, "ARG_OF_PERICENTER": 117.3615, "MEAN_ANOMALY": 242.6419, "EPHEMERIS_TYPE": 0, "CLASSIFICATION_TYPE": "U", "NORAD_CAT_ID": 59600, "ELEMENT_SET_NO": 999, "REV_AT_EPOCH": 1034, "BSTAR": 0, "MEAN_MOTION_DOT": 4e-08, "MEAN_MOTION_DDOT": 0}, "tle": {"line1": "1 59600U 24079C   25355.85527148  .00000004  00000+0  00000+0 0  9994", "line2": "2 59600  55.0019 106.0394 0002835 117.3615 242.6419  1.70474868 10348"}}, "geometry": {"type": "Point", "coordinates": [-36.01897268978149, -41.341753641996924]}}]}